{"type":"FeatureCollection","source":"Natural Earth 1:10m coastline (public domain), geographic overview only; not survey-grade","sourceUrl":"https://github.com/nvkelso/natural-earth-vector/blob/master/geojson/ne_10m_coastline.geojson","features":[{"type":"Feature","properties":{},"geometry":{"type":"LineString","coordinates":[[109.32838,12.221259],[109.291515,12.228339],[109.273204,12.235541],[109.272797,12.224799],[109.273204,12.221259],[109.266368,12.223538],[109.251964,12.22602],[109.245291,12.228095],[109.245291,12.221259],[109.254568,12.211127],[109.269298,12.198676],[109.287608,12.188951],[109.307384,12.187161],[109.305675,12.191392],[109.304698,12.192043],[109.303396,12.191881],[109.300466,12.193996],[109.309093,12.19774],[109.31658,12.197496],[109.323009,12.193752],[109.32838,12.187161],[109.333507,12.189602],[109.344412,12.196967],[109.348888,12.200832],[109.346202,12.207424],[109.342133,12.213202],[109.336274,12.217963],[109.32838,12.221259]]}},{"type":"Feature","properties":{},"geometry":{"type":"LineString","coordinates":[[109.194102,11.841132],[109.200938,11.853827],[109.204926,11.868109],[109.197927,11.869452],[109.182872,11.853013]]}},{"type":"Feature","properties":{},"geometry":{"type":"LineString","coordinates":[[109.125824,11.863593],[109.137218,11.896064],[109.156505,11.899115],[109.181814,11.921698],[109.198741,11.948147],[109.208181,11.97663],[109.211192,12.005601],[109.205821,12.021633],[109.182384,12.042873],[109.176931,12.053046],[109.18214,12.081041],[109.180675,12.084703],[109.176036,12.088568],[109.163341,12.112006],[109.176768,12.129462],[109.186209,12.117743],[109.195811,12.074897],[109.218516,12.015815],[109.211192,12.015815],[109.222667,11.981635],[109.216563,11.90884],[109.224783,11.878648],[109.228282,11.880805],[109.235606,11.883368],[109.239024,11.885443],[109.247569,11.872952],[109.261404,11.865709],[109.277843,11.864814],[109.2942,11.871243],[109.2942,11.878648],[109.280772,11.883938],[109.270844,11.895006],[109.26588,11.909898],[109.266368,11.926459],[109.283458,11.940131],[109.283458,11.943508],[109.286794,11.961168],[109.286794,11.967434],[109.258311,11.986762],[109.249197,11.997382],[109.220551,12.050605],[109.213878,12.068101],[109.209972,12.109687],[109.211192,12.118232],[109.222667,12.129055],[109.226817,12.137885],[109.22169,12.149604],[109.214203,12.158596],[109.212657,12.162665],[109.213064,12.166002],[109.211192,12.172838],[109.209646,12.186021],[109.204356,12.193793],[109.190603,12.200832],[109.190929,12.200181],[109.184337,12.193996],[109.188243,12.205756],[109.198497,12.207953],[109.224783,12.200832],[109.217621,12.211493],[109.208995,12.221666],[109.204845,12.233385],[109.211192,12.248603],[109.19158,12.260403],[109.182465,12.267808],[109.176931,12.276516],[109.182384,12.27261],[109.204926,12.262885],[109.214692,12.289781]]}}]}